COSMOS 2433 (720)       
1 32275C 07052A   22166.99979167  .00000000  00000-0  00000-0 0  1663
2 32275  66.0829   4.7168 0000799 163.5375  62.0400  2.13103981    14
COSMOS 2432 (719)       
1 32276C 07052B   22166.99979167  .00000000  00000-0  00000-0 0  1664
2 32276  66.0964   4.8177 0009020 343.6752 190.2421  2.13103244    11
COSMOS 2434 (721)       
1 32393C 07065A   22166.99979167  .00000000  00000-0  00000-0 0  1668
2 32393  64.3831 241.4770 0001563 112.9192   2.2155  2.13103097    14
COSMOS 2436 (723)       
1 32395C 07065C   22166.99979167  .00000000  00000-0  00000-0 0  1660
2 32395  64.3918 241.5341 0014654 355.4722 255.5493  2.13102943    12
COSMOS 2456 (730)       
1 36111C 09070A   22166.99979167 -.00000000  00000-0  00000-0 0  1669
2 36111  64.3538 121.1050 0005585 307.5269 333.2003  2.13099025    14
COSMOS 2457 (733)       
1 36112C 09070B   22166.99979167 -.00000000  00000-0  00000-0 0  1660
2 36112  64.3370 120.9809 0004013 188.5273 219.4780  2.13101063    18
COSMOS 2460 (732)       
1 36402C 10007C   22166.99979167  .00000000  00000-0  00000-0 0  1663
2 36402  65.9551   3.5055 0002809  79.7654 311.6465  2.13106116    11
COSMOS 2476 (744)       
1 37867C 11064A   22166.99979167 -.00000000  00000-0  00000-0 0  1664
2 37867  64.6427 122.4606 0022583 240.7108 305.5168  2.13101449    19
COSMOS 2477 (745)       
1 37868C 11064B   22166.99979167 -.00000000  00000-0  00000-0 0  1665
2 37868  64.6504 122.5253 0019962 241.9565 122.3833  2.13101288    17
COSMOS 2475 (743)       
1 37869C 11064C   22166.99979167 -.00000000  00000-0  00000-0 0  1666
2 37869  64.6577 122.5335 0024512 258.3679  63.9806  2.13101698    19
COSMOS 2485 (747)       
1 39155C 13019A   22166.99979167 -.00000000  00000-0  00000-0 0  1668
2 39155  64.8065 122.8885 0022908 236.6452 353.9721  2.13101678    17
COSMOS 2492 (754)       
1 39620C 14012A   22166.99979167  .00000000  00000-0  00000-0 0  1668
2 39620  65.8416   3.1871 0011750 334.6972 290.4085  2.13102999    15
COSMOS 2500 (755)       
1 40001C 14032A   22166.99979167  .00000000  00000-0  00000-0 0  1665
2 40001  65.7811   3.0483 0005400 177.4456 306.3343  2.13102135    17
COSMOS 2501 (702K)      
1 40315C 14075A   22166.99979167  .00000000  00000-0  00000-0 0  1660
2 40315  63.6901 241.2223 0018813 210.3190  81.4361  2.13101439    11
COSMOS 2514 (751)       
1 41330C 16008A   22166.99979167  .00000000  00000-0  00000-0 0  1666
2 41330  65.5812   2.7406 0008570 198.6378 108.9663  2.13102541    14
COSMOS 2547 (705K)      
1 46805C 20075A   22166.99979167  .00000000  00000-0  00000-0 0  1667
2 46805  64.6606 241.5172 0007914 244.2525 320.6632  2.13103167    17
COSMOS 2522 (752)       
1 42939C 17055A   22166.99979167  .00000000  00000-0  00000-0 0  1665
2 42939  64.1498 241.8927 0008857 241.6142 185.5044  2.13101892    17
COSMOS 2527 (756)       
1 43508C 18053A   22166.99979167 -.00000000  00000-0  00000-0 0  1668
2 43508  64.9695 122.8884 0009116 241.2180 218.0128  2.13102108    10
COSMOS 2529 (757)       
1 43687C 18086A   22166.99979167  .00000000  00000-0  00000-0 0  1661
2 43687  64.3647 242.2085 0010609 263.5758 119.0703  2.13102108    15
COSMOS 2534 (758)       
1 44299C 19030A   22166.99979167  .00000000  00000-0  00000-0 0  1661
2 44299  64.4365 242.0932 0012985 283.0504 234.1741  2.13101999    15
COSMOS 2544 (759)       
1 44850C 19088A   22166.99979167 -.00000000  00000-0  00000-0 0  1668
2 44850  64.9547 122.7406 0014011 263.6564 239.0443  2.13101848    13
COSMOS 2545 (760)       
1 45358C 20018A   22166.99979167  .00000000  00000-0  00000-0 0  1666
2 45358  64.9189   3.3498 0006424 242.3718 109.8069  2.13102428    11
